{"fetched_at":"2026-07-07T07:58:09.009Z","source":"https://celestrak.org/NORAD/elements/gp.php?GROUP=kuiper&FORMAT=JSON","constellation":"kuiper","records":[{"OBJECT_NAME":"KUIPER-00008","OBJECT_ID":"2025-088A","EPOCH":"2026-07-06T10:53:01.624128","CLASSIFICATION_TYPE":"U","MEAN_MOTION":14.79917967,"ECCENTRICITY":0.0000566,"INCLINATION":51.8999,"RA_OF_ASC_NODE":282.8354,"ARG_OF_PERICENTER":102.2722,"MEAN_ANOMALY":257.8304,"EPHEMERIS_TYPE":0,"NORAD_CAT_ID":63724,"ELEMENT_SET_NO":999,"REV_AT_EPOCH":6563,"BSTAR":-0.00015782,"MEAN_MOTION_DOT":-0.00001423,"MEAN_MOTION_DDOT":0},{"OBJECT_NAME":"KUIPER-00009","OBJECT_ID":"2025-088B","EPOCH":"2026-07-06T12:51:42.287904","CLASSIFICATION_TYPE":"U","MEAN_MOTION":14.79918759,"ECCENTRICITY":0.0000693,"INCLINATION":51.9024,"RA_OF_ASC_NODE":300.1014,"ARG_OF_PERICENTER":79.7518,"MEAN_ANOMALY":280.3522,"EPHEMERIS_TYPE":0,"NORAD_CAT_ID":63725,"ELEMENT_SET_NO":999,"REV_AT_EPOCH":6539,"BSTAR":0.0004937,"MEAN_MOTION_DOT":0.00003543,"MEAN_MOTION_DDOT":0},{"OBJECT_NAME":"KUIPER-00010","OBJECT_ID":"2025-088C","EPOCH":"2026-07-06T13:26:40.271712","CLASSIFICATION_TYPE":"U","MEAN_MOTION":14.79931075,"ECCENTRICITY":0.0000609,"INCLINATION":51.9036,"RA_OF_ASC_NODE":277.4671,"ARG_OF_PERICENTER":92.6237,"MEAN_ANOMALY":267.4795,"EPHEMERIS_TYPE":0,"NORAD_CAT_ID":63726,"ELEMENT_SET_NO":999,"REV_AT_EPOCH":6533,"BSTAR":-0.000063285,"MEAN_MOTION_DOT":-0.00000703,"MEAN_MOTION_DDOT":0},{"OBJECT_NAME":"KUIPER-00011","OBJECT_ID":"2025-088D","EPOCH":"2026-07-06T14:03:39.917088","CLASSIFICATION_TYPE":"U","MEAN_MOTION":14.79923371,"ECCENTRICITY":0.0000696,"INCLINATION":51.9017,"RA_OF_ASC_NODE":284.9019,"ARG_OF_PERICENTER":115.9511,"MEAN_ANOMALY":244.1523,"EPHEMERIS_TYPE":0,"NORAD_CAT_ID":63727,"ELEMENT_SET_NO":999,"REV_AT_EPOCH":6536,"BSTAR":-0.00010313,"MEAN_MOTION_DOT":-0.00001007,"MEAN_MOTION_DDOT":0},{"OBJECT_NAME":"KUIPER-00012","OBJECT_ID":"2025-088E","EPOCH":"2026-07-06T10:23:49.941024","CLASSIFICATION_TYPE":"U","MEAN_MOTION":14.79919058,"ECCENTRICITY":0.0000753,"INCLINATION":51.8996,"RA_OF_ASC_NODE":270.5109,"ARG_OF_PERICENTER":103.731,"MEAN_ANOMALY":256.3736,"EPHEMERIS_TYPE":0,"NORAD_CAT_ID":63728,"ELEMENT_SET_NO":999,"REV_AT_EPOCH":6550,"BSTAR":-0.000095831,"MEAN_MOTION_DOT":-0.00000951,"MEAN_MOTION_DDOT":0},{"OBJECT_NAME":"KUIPER-00013","OBJECT_ID":"2025-088F","EPOCH":"2026-07-06T13:36:26.334144","CLASSIFICATION_TYPE":"U","MEAN_MOTION":14.79914508,"ECCENTRICITY":0.0000566,"INCLINATION":51.9027,"RA_OF_ASC_NODE":302.438,"ARG_OF_PERICENTER":106.1498,"MEAN_ANOMALY":253.9526,"EPHEMERIS_TYPE":0,"NORAD_CAT_ID":63729,"ELEMENT_SET_NO":999,"REV_AT_EPOCH":6517,"BSTAR":0.00033247,"MEAN_MOTION_DOT":0.00002313,"MEAN_MOTION_DDOT":0},{"OBJECT_NAME":"KUIPER-00014","OBJECT_ID":"2025-088G","EPOCH":"2026-07-06T12:47:50.224416","CLASSIFICATION_TYPE":"U","MEAN_MOTION":14.79928039,"ECCENTRICITY":0.000068,"INCLINATION":51.9006,"RA_OF_ASC_NODE":302.5253,"ARG_OF_PERICENTER":124.8393,"MEAN_ANOMALY":235.2634,"EPHEMERIS_TYPE":0,"NORAD_CAT_ID":63730,"ELEMENT_SET_NO":999,"REV_AT_EPOCH":6498,"BSTAR":0.0000092159,"MEAN_MOTION_DOT":-0.00000151,"MEAN_MOTION_DDOT":0},{"OBJECT_NAME":"KUIPER-00015","OBJECT_ID":"2025-088H","EPOCH":"2026-07-06T13:20:56.006592","CLASSIFICATION_TYPE":"U","MEAN_MOTION":14.79930855,"ECCENTRICITY":0.0000586,"INCLINATION":51.9013,"RA_OF_ASC_NODE":312.4934,"ARG_OF_PERICENTER":102.709,"MEAN_ANOMALY":257.3938,"EPHEMERIS_TYPE":0,"NORAD_CAT_ID":63731,"ELEMENT_SET_NO":999,"REV_AT_EPOCH":6530,"BSTAR":0.000073847,"MEAN_MOTION_DOT":0.00000342,"MEAN_MOTION_DDOT":0},{"OBJECT_NAME":"KUIPER-00016","OBJECT_ID":"2025-088J","EPOCH":"2026-07-06T07:52:12.059040","CLASSIFICATION_TYPE":"U","MEAN_MOTION":14.79952204,"ECCENTRICITY":0.0000484,"INCLINATION":51.8982,"RA_OF_ASC_NODE":305.9487,"ARG_OF_PERICENTER":119.6375,"MEAN_ANOMALY":240.4636,"EPHEMERIS_TYPE":0,"NORAD_CAT_ID":63732,"ELEMENT_SET_NO":999,"REV_AT_EPOCH":6491,"BSTAR":0.00031305,"MEAN_MOTION_DOT":0.00002167,"MEAN_MOTION_DDOT":0},{"OBJECT_NAME":"KUIPER-00018","OBJECT_ID":"2025-088K","EPOCH":"2026-07-06T12:10:52.597344","CLASSIFICATION_TYPE":"U","MEAN_MOTION":14.79925008,"ECCENTRICITY":0.0000724,"INCLINATION":51.9037,"RA_OF_ASC_NODE":295.1873,"ARG_OF_PERICENTER":100.2367,"MEAN_ANOMALY":259.8677,"EPHEMERIS_TYPE":0,"NORAD_CAT_ID":63733,"ELEMENT_SET_NO":999,"REV_AT_EPOCH":6508,"BSTAR":-0.000032721,"MEAN_MOTION_DOT":-0.00000471,"MEAN_MOTION_DDOT":0},{"OBJECT_NAME":"KUIPER-00019","OBJECT_ID":"2025-088L","EPOCH":"2026-07-06T14:26:31.313184","CLASSIFICATION_TYPE":"U","MEAN_MOTION":14.79916193,"ECCENTRICITY":0.0000652,"INCLINATION":51.9001,"RA_OF_ASC_NODE":293.5301,"ARG_OF_PERICENTER":111.6763,"MEAN_ANOMALY":248.4269,"EPHEMERIS_TYPE":0,"NORAD_CAT_ID":63734,"ELEMENT_SET_NO":999,"REV_AT_EPOCH":6511,"BSTAR":0.00009721,"MEAN_MOTION_DOT":0.0000052,"MEAN_MOTION_DDOT":0},{"OBJECT_NAME":"KUIPER-00020","OBJECT_ID":"2025-088M","EPOCH":"2026-07-06T07:15:15.282144","CLASSIFICATION_TYPE":"U","MEAN_MOTION":14.79928369,"ECCENTRICITY":0.0000995,"INCLINATION":51.8998,"RA_OF_ASC_NODE":298.5978,"ARG_OF_PERICENTER":95.7897,"MEAN_ANOMALY":264.3179,"EPHEMERIS_TYPE":0,"NORAD_CAT_ID":63735,"ELEMENT_SET_NO":999,"REV_AT_EPOCH":6522,"BSTAR":0.000019478283,"MEAN_MOTION_DOT":-7.3e-7,"MEAN_MOTION_DDOT":0},{"OBJECT_NAME":"KUIPER-00021","OBJECT_ID":"2025-088N","EPOCH":"2026-07-06T14:32:51.097344","CLASSIFICATION_TYPE":"U","MEAN_MOTION":14.79922577,"ECCENTRICITY":0.0000604,"INCLINATION":51.9029,"RA_OF_ASC_NODE":297.2131,"ARG_OF_PERICENTER":98.0657,"MEAN_ANOMALY":262.0373,"EPHEMERIS_TYPE":0,"NORAD_CAT_ID":63736,"ELEMENT_SET_NO":999,"REV_AT_EPOCH":6510,"BSTAR":-0.00012312,"MEAN_MOTION_DOT":-0.00001159,"MEAN_MOTION_DDOT":0},{"OBJECT_NAME":"KUIPER-00023","OBJECT_ID":"2025-088P","EPOCH":"2026-07-06T12:03:03.231936","CLASSIFICATION_TYPE":"U","MEAN_MOTION":14.79938174,"ECCENTRICITY":0.0000582,"INCLINATION":51.9018,"RA_OF_ASC_NODE":300.161,"ARG_OF_PERICENTER":116.471,"MEAN_ANOMALY":243.6312,"EPHEMERIS_TYPE":0,"NORAD_CAT_ID":63737,"ELEMENT_SET_NO":999,"REV_AT_EPOCH":6535,"BSTAR":0.00033269,"MEAN_MOTION_DOT":0.00002316,"MEAN_MOTION_DDOT":0},{"OBJECT_NAME":"KUIPER-00024","OBJECT_ID":"2025-088Q","EPOCH":"2026-07-06T13:59:46.917888","CLASSIFICATION_TYPE":"U","MEAN_MOTION":14.79916721,"ECCENTRICITY":0.0000457,"INCLINATION":51.9057,"RA_OF_ASC_NODE":287.4041,"ARG_OF_PERICENTER":60.8334,"MEAN_ANOMALY":299.2674,"EPHEMERIS_TYPE":0,"NORAD_CAT_ID":63738,"ELEMENT_SET_NO":999,"REV_AT_EPOCH":6566,"BSTAR":-0.000040546,"MEAN_MOTION_DOT":-0.0000053,"MEAN_MOTION_DDOT":0},{"OBJECT_NAME":"KUIPER-00025","OBJECT_ID":"2025-088R","EPOCH":"2026-07-06T14:36:42.341760","CLASSIFICATION_TYPE":"U","MEAN_MOTION":14.79919003,"ECCENTRICITY":0.0000628,"INCLINATION":51.902,"RA_OF_ASC_NODE":294.7665,"ARG_OF_PERICENTER":64.5898,"MEAN_ANOMALY":295.5129,"EPHEMERIS_TYPE":0,"NORAD_CAT_ID":63739,"ELEMENT_SET_NO":999,"REV_AT_EPOCH":6542,"BSTAR":0.00016183,"MEAN_MOTION_DOT":0.00001012,"MEAN_MOTION_DDOT":0}]}
