KUIPER-00008            
1 63724U 25088A   26187.45349102 -.00001423  00000+0 -15782-3 0  9994
2 63724  51.8999 282.8354 0000566 102.2722 257.8304 14.79917967 65639
KUIPER-00009            
1 63725U 25088B   26187.53590611  .00003543  00000+0  49370-3 0  9990
2 63725  51.9024 300.1014 0000693  79.7518 280.3522 14.79918759 65395
KUIPER-00010            
1 63726U 25088C   26187.56018833 -.00000703  00000+0 -63285-4 0  9994
2 63726  51.9036 277.4671 0000609  92.6237 267.4795 14.79931075 65331
KUIPER-00011            
1 63727U 25088D   26187.58587867 -.00001007  00000+0 -10313-3 0  9996
2 63727  51.9017 284.9019 0000696 115.9511 244.1523 14.79923371 65364
KUIPER-00012            
1 63728U 25088E   26187.43321691 -.00000951  00000+0 -95831-4 0  9998
2 63728  51.8996 270.5109 0000753 103.7310 256.3736 14.79919058 65501
KUIPER-00013            
1 63729U 25088F   26187.56697146  .00002313  00000+0  33247-3 0  9998
2 63729  51.9027 302.4380 0000566 106.1498 253.9526 14.79914508 65178
KUIPER-00014            
1 63730U 25088G   26187.53322019 -.00000151  00000+0  92159-5 0  9999
2 63730  51.9006 302.5253 0000680 124.8393 235.2634 14.79928039 64980
KUIPER-00015            
1 63731U 25088H   26187.55620378  .00000342  00000+0  73847-4 0  9994
2 63731  51.9013 312.4934 0000586 102.7090 257.3938 14.79930855 65307
KUIPER-00016            
1 63732U 25088J   26187.32791735  .00002167  00000+0  31305-3 0  9995
2 63732  51.8982 305.9487 0000484 119.6375 240.4636 14.79952204 64918
KUIPER-00018            
1 63733U 25088K   26187.50755321 -.00000471  00000+0 -32721-4 0  9999
2 63733  51.9037 295.1873 0000724 100.2367 259.8677 14.79925008 65084
KUIPER-00019            
1 63734U 25088L   26187.60175131  .00000520  00000+0  97210-4 0  9993
2 63734  51.9001 293.5301 0000652 111.6763 248.4269 14.79916193 65110
KUIPER-00020            
1 63735U 25088M   26187.30226021 -.00000073  00000+0  19478-4 0  9990
2 63735  51.8998 298.5978 0000995  95.7897 264.3179 14.79928369 65227
KUIPER-00021            
1 63736U 25088N   26187.60614696 -.00001159  00000+0 -12312-3 0  9999
2 63736  51.9029 297.2131 0000604  98.0657 262.0373 14.79922577 65101
KUIPER-00023            
1 63737U 25088P   26187.50212074  .00002316  00000+0  33269-3 0  9991
2 63737  51.9018 300.1610 0000582 116.4710 243.6312 14.79938174 65351
KUIPER-00024            
1 63738U 25088Q   26187.58318192 -.00000530  00000+0 -40546-4 0  9993
2 63738  51.9057 287.4041 0000457  60.8334 299.2674 14.79916721 65661
KUIPER-00025            
1 63739U 25088R   26187.60882340  .00001012  00000+0  16183-3 0  9991
2 63739  51.9020 294.7665 0000628  64.5898 295.5129 14.79919003 65425
